IRIDIUM 106             
1 41917U 17003A   24145.24664728  .00000579  00000+0  19970-3 0  9997
2 41917  86.3996  43.5930 0001844  94.0144 266.1263 14.34215946385144
IRIDIUM 103             
1 41918U 17003B   24145.16419299  .00000627  00000+0  21666-3 0  9999
2 41918  86.3994  43.5294 0002101  77.2496 282.8935 14.34214883385157
IRIDIUM 109             
1 41919U 17003C   24145.24030387  .00000544  00000+0  18721-3 0  9992
2 41919  86.3995  43.5445 0002469  82.4672 277.6804 14.34215014385130
IRIDIUM 102             
1 41920U 17003D   24145.62720413  .00000615  00000+0  21240-3 0  9991
2 41920  86.3994  43.3226 0002425  86.6994 273.4479 14.34218297385274
IRIDIUM 105             
1 41921U 17003E   24145.59790210  .00000477  00000+0  16314-3 0  9992
2 41921  86.3995  11.7743 0002112  81.3767 278.7668 14.34229435387122
IRIDIUM 104             
1 41922U 17003F   24145.22128641  .00000620  00000+0  21436-3 0  9997
2 41922  86.3996  43.5231 0002512  77.9258 282.2219 14.34214004385204
IRIDIUM 114             
1 41923U 17003G   24145.22761978  .00000509  00000+0  17465-3 0  9997
2 41923  86.3994  43.5063 0002021  90.6281 269.5146 14.34215786385181
IRIDIUM 108             
1 41924U 17003H   24145.60474626  .00000390  00000+0  13207-3 0  9999
2 41924  86.3991  11.6979 0002006  91.3600 268.7826 14.34214798387097
